stk.v.4.3 

BEGIN Ephemeris 
 
NumberOfEphemerisPoints		146 
ScenarioEpoch	    3 Sep 2020 21:49:54.875407219 
InterpolationMethod		Lagrange 
InterpolationOrder		5 
CentralBody				Earth 
CoordinateSystem			TEME 
CoordinateSystemEpoch	  3 Sep 2020 21:49:54.875407219 
DistanceUnit			Kilometers 
 
EphemerisTimePosVel 
 
       0.00000000   -4084.85337825    5878.68687633       0.03794867 -0.379771846 -0.274978405  7.449048281
 END Ephemeris 
